NORAD_CAT_ID,OBJECT_NAME,OBJECT_TYPE,EPOCH,MEAN_MOTION,ECCENTRICITY,INCLINATION,RA_OF_ASC_NODE,ARG_OF_PERICENTER,MEAN_ANOMALY,BSTAR,MEAN_MOTION_DOT,MEAN_MOTION_DDOT,TLE_LINE0,TLE_LINE1,TLE_LINE2,SEMIMAJOR_AXIS,PERIOD,APOGEE,PERIGEE,DECAYED
52463.0,STARLINK-3885,PAYLOAD,2023-03-04 02:19:58,15.08879917,7.42e-05,53.2177,314.3594,97.2627,262.8449,0.001313,0.00020693,0.0,0 STARLINK-3885,1 52463U 22049N   23063.09720396  .00020693  00000-0  13130-2 0  9997,2 52463  53.2177 314.3594 0000742  97.2627 262.8449 15.08879917 46248,6917.758,95.435,540.137,539.11,0.0
52463.0,STARLINK-3885,PAYLOAD,2023-03-04 19:49:13,15.0883277,9.05e-05,53.2177,311.09,106.2492,253.8599,-0.00013579,-2.448e-05,0.0,0 STARLINK-3885,1 52463U 22049N   23063.82585323 -.00002448  00000-0 -13579-3 0  9995,2 52463  53.2177 311.0900 0000905 106.2492 253.8599 15.08832770 46359,6917.902,95.438,540.394,539.141,0.0
52463.0,STARLINK-3885,PAYLOAD,2023-03-05 22:50:47,15.08849915,9.53e-05,53.2179,306.0362,54.854,305.2541,0.0022255,0.00035318,0.0,0 STARLINK-3885,1 52463U 22049N   23064.95194182  .00035318  00000-0  22255-2 0  9999,2 52463  53.2179 306.0362 0000953  54.8540 305.2541 15.08849915 46529,6917.85,95.437,540.374,539.056,0.0
52463.0,STARLINK-3885,PAYLOAD,2023-03-06 14:44:39,15.08845005,0.0001095,53.2174,303.0634,58.7607,301.3492,0.0011888,0.00018685,0.0,0 STARLINK-3885,1 52463U 22049N   23065.61434169  .00018685  00000-0  11888-2 0  9993,2 52463  53.2174 303.0634 0001095  58.7607 301.3492 15.08845005 46627,6917.865,95.437,540.488,538.973,0.0
52463.0,STARLINK-3885,PAYLOAD,2023-03-06 22:41:34,15.08847981,0.0001243,53.2167,301.572,40.0253,320.0831,0.00062935,9.745e-05,0.0,0 STARLINK-3885,1 52463U 22049N   23065.94554160  .00009745  00000-0  62935-3 0  9990,2 52463  53.2167 301.5720 0001243  40.0253 320.0831 15.08847981 46512,6917.856,95.437,540.581,538.861,0.0
52463.0,STARLINK-3885,PAYLOAD,2023-03-07 14:35:26,15.08839998,0.0001109,53.2172,298.6033,76.2826,283.8289,0.00035777,5.411e-05,0.0,0 STARLINK-3885,1 52463U 22049N   23066.60794351  .00005411  00000-0  35777-3 0  9992,2 52463  53.2172 298.6033 0001109  76.2826 283.8289 15.08839998 46779,6917.88,95.438,540.513,538.978,0.0
52463.0,STARLINK-3885,PAYLOAD,2023-03-07 22:32:21,15.08853316,0.0001055,53.2169,297.1154,79.1692,280.9419,0.00065654,0.0001018,0.0,0 STARLINK-3885,1 52463U 22049N   23066.93913975  .00010180  00000-0  65654-3 0  9999,2 52463  53.2169 297.1154 0001055  79.1692 280.9419 15.08853316 46667,6917.84,95.437,540.435,538.975,0.0
52463.0,STARLINK-3885,PAYLOAD,2023-03-08 01:43:07,15.08857316,0.0001192,53.2159,296.5197,79.3284,280.7842,0.00075186,0.00011704,0.0,0 STARLINK-3885,1 52463U 22049N   23067.07161813  .00011704  00000-0  75186-3 0  9995,2 52463  53.2159 296.5197 0001192  79.3284 280.7842 15.08857316 46849,6917.827,95.436,540.517,538.868,0.0
52463.0,STARLINK-3885,PAYLOAD,2023-03-08 23:58:32,15.08840851,9.62e-05,53.2168,292.3592,85.9453,274.1649,0.00023923,3.522e-05,0.0,0 STARLINK-3885,1 52463U 22049N   23067.99898402  .00003522  00000-0  23923-3 0  9998,2 52463  53.2168 292.3592 0000962  85.9453 274.1649 15.08840851 46980,6917.878,95.438,540.408,539.077,0.0
52463.0,STARLINK-3885,PAYLOAD,2023-03-09 22:13:55,15.08854115,0.0001083,53.2161,288.1933,78.1464,281.965,0.00096248,0.00015069,0.0,0 STARLINK-3885,1 52463U 22049N   23068.92634193  .00015069  00000-0  96248-3 0  9996,2 52463  53.2161 288.1933 0001083  78.1464 281.9650 15.08854115 46960,6917.837,95.437,540.451,538.953,0.0
52463.0,STARLINK-3885,PAYLOAD,2023-03-10 07:46:15,15.08846128,0.0001065,53.2161,286.4092,94.7151,265.3963,0.00073716,0.00011465,0.0,0 STARLINK-3885,1 52463U 22049N   23069.32378946  .00011465  00000-0  73716-3 0  9993,2 52463  53.2161 286.4092 0001065  94.7151 265.3963 15.08846128 47187,6917.862,95.437,540.463,538.99,0.0
52463.0,STARLINK-3885,PAYLOAD,2023-03-10 14:07:47,15.0883054,0.0001056,53.2164,285.2205,84.8833,275.228,-0.00012989,-2.354e-05,0.0,0 STARLINK-3885,1 52463U 22049N   23069.58874844 -.00002354  00000-0 -12989-3 0  9993,2 52463  53.2164 285.2205 0001056  84.8833 275.2280 15.08830540 47228,6917.909,95.438,540.505,539.044,0.0
52463.0,STARLINK-3885,PAYLOAD,2023-03-10 20:29:20,15.0883857,0.0001092,53.2153,284.0307,84.909,275.2027,0.00012729,1.739e-05,0.0,0 STARLINK-3885,1 52463U 22049N   23069.85370763  .00001739  00000-0  12729-3 0  9990,2 52463  53.2153 284.0307 0001092  84.9090 275.2027 15.08838570 47109,6917.885,95.438,540.505,538.994,0.0
52463.0,STARLINK-3885,PAYLOAD,2023-03-10 23:40:06,15.08844471,0.0001121,53.2157,283.4357,86.027,274.085,0.0003283,4.942e-05,0.0,0 STARLINK-3885,1 52463U 22049N   23069.98618682  .00004942  00000-0  32830-3 0  9993,2 52463  53.2157 283.4357 0001121  86.0270 274.0850 15.08844471 47284,6917.867,95.437,540.507,538.956,0.0
52463.0,STARLINK-3885,PAYLOAD,2023-03-11 23:30:53,15.08843775,0.0001207,53.2165,278.9744,90.8842,269.2289,0.00031867,4.788e-05,0.0,0 STARLINK-3885,1 52463U 22049N   23070.97978851  .00004788  00000-0  31867-3 0  9998,2 52463  53.2165 278.9744 0001207  90.8842 269.2289 15.08843775 47430,6917.869,95.437,540.569,538.899,0.0
52463.0,STARLINK-3885,PAYLOAD,2023-03-12 23:21:40,15.08844038,0.0001319,53.2173,274.5114,87.3188,272.7955,0.00018509,2.659e-05,0.0,0 STARLINK-3885,1 52463U 22049N   23071.97338910  .00002659  00000-0  18509-3 0  9998,2 52463  53.2173 274.5114 0001319  87.3188 272.7955 15.08844038 47588,6917.868,95.437,540.646,538.821,0.0
52463.0,STARLINK-3885,PAYLOAD,2023-03-14 00:47:51,15.08838087,0.0001107,53.2172,269.7534,83.2396,276.8722,3.9625e-05,3.43e-06,0.0,0 STARLINK-3885,1 52463U 22049N   23073.03323303  .00000343  00000-0  39625-4 0  9998,2 52463  53.2172 269.7534 0001107  83.2396 276.8722 15.08838087 47742,6917.886,95.438,540.517,538.985,0.0
52463.0,STARLINK-3885,PAYLOAD,2023-03-14 11:55:33,15.08842393,0.0001264,53.2174,267.6717,83.3219,276.7917,0.00020453,2.969e-05,0.0,0 STARLINK-3885,1 52463U 22049N   23073.49691458  .00002969  00000-0  20453-3 0  9991,2 52463  53.2174 267.6717 0001264  83.3219 276.7917 15.08842393 47653,6917.873,95.437,540.612,538.864,0.0
52463.0,STARLINK-3885,PAYLOAD,2023-03-14 19:52:28,15.08850897,6.73e-05,53.2157,266.1904,44.6326,315.4721,0.00028435,4.242e-05,0.0,0 STARLINK-3885,1 52463U 22049N   23073.82810811  .00004242  00000-0  28435-3 0  9998,2 52463  53.2157 266.1904 0000673  44.6326 315.4721 15.08850897 47706,6917.847,95.437,540.178,539.247,0.0
52463.0,STARLINK-3885,PAYLOAD,2023-03-15 05:24:47,15.08846412,0.0001631,53.2169,264.4025,78.4826,281.6349,0.00027912,4.158e-05,0.0,0 STARLINK-3885,1 52463U 22049N   23074.22554768  .00004158  00000-0  27912-3 0  9994,2 52463  53.2169 264.4025 0001631  78.4826 281.6349 15.08846412 47921,6917.861,95.437,540.854,538.597,0.0
52463.0,STARLINK-3885,PAYLOAD,2023-03-15 11:46:19,15.08855844,0.0001785,53.2122,263.2129,76.8428,283.2763,0.00032139,4.833e-05,0.0,0 STARLINK-3885,1 52463U 22049N   23074.49050598  .00004833  00000-0  32139-3 0  9992,2 52463  53.2122 263.2129 0001785  76.8428 283.2763 15.08855844 47806,6917.832,95.437,540.932,538.462,0.0
52463.0,STARLINK-3885,PAYLOAD,2023-03-15 21:18:37,15.08862622,0.0001144,53.216,261.4305,68.8542,291.2573,0.00036963,5.603e-05,0.0,0 STARLINK-3885,1 52463U 22049N   23074.88793746  .00005603  00000-0  36963-3 0  9999,2 52463  53.2160 261.4305 0001144  68.8542 291.2573 15.08862622 47867,6917.811,95.436,540.468,538.885,0.0
52463.0,STARLINK-3885,PAYLOAD,2023-03-16 05:15:34,15.08826516,0.0001081,53.2128,259.9431,82.2479,277.8636,-0.00066145,-0.00010795,0.0,0 STARLINK-3885,1 52463U 22049N   23075.21914461 -.00010795  00000-0 -66145-3 0  9991,2 52463  53.2128 259.9431 0001081  82.2479 277.8636 15.08826516 48078,6917.922,95.438,540.534,539.039,0.0
52463.0,STARLINK-3885,PAYLOAD,2023-03-16 21:09:26,15.08822937,9.82e-05,53.216,256.9699,91.068,269.0425,-4.1622e-05,-9.5e-06,0.0,0 STARLINK-3885,1 52463U 22049N   23075.88155112 -.00000950  00000-0 -41622-4 0  9990,2 52463  53.2160 256.9699 0000982  91.0680 269.0425 15.08822937 48014,6917.933,95.439,540.477,539.118,0.0
52463.0,STARLINK-3885,PAYLOAD,2023-03-17 05:06:22,15.08823054,0.0001125,53.2164,255.4829,93.318,266.794,0.00047943,7.347e-05,0.0,0 STARLINK-3885,1 52463U 22049N   23076.21275672  .00007347  00000-0  47943-3 0  9998,2 52463  53.2164 255.4829 0001125  93.3180 266.7940 15.08823054 48227,6917.932,95.439,540.575,539.019,0.0
52463.0,STARLINK-3885,PAYLOAD,2023-03-17 13:03:18,15.08834406,0.0001101,53.2158,253.996,99.4595,260.6522,0.00088166,0.00013769,0.0,0 STARLINK-3885,1 52463U 22049N   23076.54395884  .00013769  00000-0  88166-3 0  9999,2 52463  53.2158 253.9960 0001101  99.4595 260.6522 15.08834406 48110,6917.897,95.438,540.524,539.001,0.0
52463.0,STARLINK-3885,PAYLOAD,2023-03-17 17:49:27,15.08840344,0.0001145,53.2155,253.1047,92.6215,267.4909,0.00095737,0.00014982,0.0,0 STARLINK-3885,1 52463U 22049N   23076.74267934  .00014982  00000-0  95737-3 0  9995,2 52463  53.2155 253.1047 0001145  92.6215 267.4909 15.08840344 48142,6917.879,95.438,540.536,538.952,0.0
52463.0,STARLINK-3885,PAYLOAD,2023-03-18 20:51:00,15.08864617,0.0001161,53.2153,248.0489,85.2189,274.8936,0.00080347,0.00012531,0.0,0 STARLINK-3885,1 52463U 22049N   23077.86875073  .00012531  00000-0  80347-3 0  9997,2 52463  53.2153 248.0489 0001161  85.2189 274.8936 15.08864617 48476,6917.805,95.436,540.473,538.867,0.0
52463.0,STARLINK-3885,PAYLOAD,2023-03-19 04:47:55,15.08853789,8.01e-05,53.216,246.5622,103.0981,257.0101,0.00017447,2.491e-05,0.0,0 STARLINK-3885,1 52463U 22049N   23078.19994877  .00002491  00000-0  17447-3 0  9993,2 52463  53.2160 246.5622 0000801 103.0981 257.0101 15.08853789 48526,6917.838,95.437,540.257,539.149,0.0
52463.0,STARLINK-3885,PAYLOAD,2023-03-19 11:09:28,15.08850519,0.0001495,53.2146,245.3723,94.8851,265.2311,0.00021269,3.1e-05,0.0,0 STARLINK-3885,1 52463U 22049N   23078.46491067  .00003100  00000-0  21269-3 0  9991,2 52463  53.2146 245.3723 0001495  94.8851 265.2311 15.08850519 48401,6917.848,95.437,540.747,538.679,0.0
